<?xml version="1.0" encoding="UTF-8"?>
<kml xmlns:gx="http://www.google.com/kml/ext/2.2">
  <Document>
    <name>overlay image</name>
    <GroundOverlay>
      <name>overlay image</name>
      <Icon>
        <href>BROWSE_NATIVE.png</href>
      </Icon>
      <gx:LatLonQuad>
        <coordinates>-119.01185042103839,35.1343852531145 -116.27619949032467,34.44353970155599 -116.11822390518942,34.850995277835366 -118.86666688819317,35.545466290396945</coordinates>
      </gx:LatLonQuad>
    </GroundOverlay>
  </Document>
</kml>