<?xml version="1.0" encoding="UTF-8"?>
<kml xmlns:gx="http://www.google.com/kml/ext/2.2">
  <Document>
    <name>overlay image</name>
    <GroundOverlay>
      <name>overlay image</name>
      <Icon>
        <href>BROWSE_NATIVE_B_HV.png</href>
      </Icon>
      <gx:LatLonQuad>
        <coordinates>-119.2782215579472,34.36990788318534 -116.56510103420352,33.68549551525504 -116.3878496391046,34.15165375682984 -119.11511403633625,34.84009872462758</coordinates>
      </gx:LatLonQuad>
    </GroundOverlay>
  </Document>
</kml>