<?xml version="1.0" encoding="UTF-8"?>
<kml xmlns:gx="http://www.google.com/kml/ext/2.2">
  <Document>
    <name>overlay image</name>
    <GroundOverlay>
      <name>overlay image</name>
      <Icon>
        <href>BROWSE_NATIVE_B_HH.png</href>
      </Icon>
      <gx:LatLonQuad>
        <coordinates>-107.90752952715137,50.801716166215044 -111.42227080876621,49.89608503827636 -111.12723836127756,49.44653468182787 -107.64135785221966,50.34394169796869</coordinates>
      </gx:LatLonQuad>
    </GroundOverlay>
  </Document>
</kml>