<?xml version="1.0" encoding="UTF-8"?>
<kml xmlns:gx="http://www.google.com/kml/ext/2.2">
  <Document>
    <name>overlay image</name>
    <GroundOverlay>
      <name>overlay image</name>
      <Icon>
        <href>BROWSE_LATLON.png</href>
      </Icon>
      <gx:LatLonQuad>
        <coordinates>-111.52615046710443,49.41871966284998 -107.63311064864828,49.41871966284998 -107.63311064864828,50.803633639000125 -111.52615046710443,50.803633639000125</coordinates>
      </gx:LatLonQuad>
    </GroundOverlay>
  </Document>
</kml>