<?xml version="1.0" encoding="UTF-8"?>
<kml xmlns:gx="http://www.google.com/kml/ext/2.2">
  <Document>
    <name>overlay image</name>
    <GroundOverlay>
      <name>overlay image</name>
      <Icon>
        <href>BROWSE_NATIVE_B_HH.png</href>
      </Icon>
      <gx:LatLonQuad>
        <coordinates>-119.41940105401765,33.958618553993155 -116.7184007147324,33.27767517557465 -115.91205741205547,35.374853671847795 -118.6779470942657,36.07423642994495</coordinates>
      </gx:LatLonQuad>
    </GroundOverlay>
  </Document>
</kml>