<?xml version="1.0" encoding="UTF-8"?>
<kml xmlns:gx="http://www.google.com/kml/ext/2.2">
  <Document>
    <name>overlay image</name>
    <GroundOverlay>
      <name>overlay image</name>
      <Icon>
        <href>BROWSE_NATIVE_B_HH.png</href>
      </Icon>
      <gx:LatLonQuad>
        <coordinates>-108.80823199144349,52.28561785571895 -112.42062397382136,51.35188892037434 -111.12723836127756,49.44653468182787 -107.64135785221966,50.34394169796869</coordinates>
      </gx:LatLonQuad>
    </GroundOverlay>
  </Document>
</kml>