<?xml version="1.0" encoding="UTF-8"?>
<kml xmlns:gx="http://www.google.com/kml/ext/2.2">
  <Document>
    <name>overlay image</name>
    <GroundOverlay>
      <name>overlay image</name>
      <Icon>
        <href>BROWSE_NATIVE_A_HV.png</href>
      </Icon>
      <gx:LatLonQuad>
        <coordinates>-108.8088275787564,52.286059071861935 -112.42117182111808,51.3523316346843 -111.12742705198227,49.446482324397515 -107.64162467159488,50.34387822854756</coordinates>
      </gx:LatLonQuad>
    </GroundOverlay>
  </Document>
</kml>