<?xml version="1.0" encoding="UTF-8"?>
<kml xmlns:gx="http://www.google.com/kml/ext/2.2">
  <Document>
    <name>overlay image</name>
    <GroundOverlay>
      <name>overlay image</name>
      <Icon>
        <href>BROWSE_NATIVE_B_HH.png</href>
      </Icon>
      <gx:LatLonQuad>
        <coordinates>17.34283566210621,49.82059542815389 14.0485067381735,48.97070689535106 15.288949503084439,46.933652139748524 18.468374179585425,47.7510302769281</coordinates>
      </gx:LatLonQuad>
    </GroundOverlay>
  </Document>
</kml>