<?xml version="1.0" encoding="UTF-8"?>
<kml xmlns:gx="http://www.google.com/kml/ext/2.2">
  <Document>
    <name>overlay image</name>
    <GroundOverlay>
      <name>overlay image</name>
      <Icon>
        <href>BROWSE_NATIVE_B_HV.png</href>
      </Icon>
      <gx:LatLonQuad>
        <coordinates>-119.01177850966783,35.135235756842356 -116.27547679680698,34.44422229077114 -116.1178052987138,34.85088383713876 -118.86687727104122,35.545516622773775</coordinates>
      </gx:LatLonQuad>
    </GroundOverlay>
  </Document>
</kml>